ONEWEB-0298             
1 49087U 21075N   24062.83152044  .00000045  00000+0  82055-4 0  9996
2 49087  87.9262 172.2461 0001888 114.4194 245.7134 13.17649855123489
ONEWEB-0299             
1 49088U 21075P   24062.83310103 -.00000343  00000+0 -91542-3 0  9992
2 49088  87.9258 172.2196 0001952 117.6818 242.4512 13.17652524123469
ONEWEB-0300             
1 49089U 21075Q   24062.78226084  .00000436  00000+0  11761-2 0  9996
2 49089  87.9035 157.1286 0002129 105.7496 254.3868 13.12442618125499
ONEWEB-0301             
1 49090U 21075R   24062.76635705 -.00000217  00000+0 -63936-3 0  9991
2 49090  87.9035 157.1342 0002024  99.1569 260.9789 13.12443931124858
ONEWEB-0302             
1 49091U 21075S   24062.75366022 -.00000395  00000+0 -11331-2 0  9992
2 49091  87.9037 157.1340 0001705 115.3919 244.7386 13.12443791124839
ONEWEB-0304             
1 49092U 21075T   24062.80779105  .00000060  00000+0  12151-3 0  9998
2 49092  87.9262 172.2365 0001716 119.5111 240.6192 13.17650288123438
ONEWEB-0305             
1 49093U 21075U   24062.79987832  .00000016  00000+0  71365-5 0  9990
2 49093  87.9258 172.2276 0001969 121.8489 238.2834 13.17650525123462
ONEWEB-0308             
1 49094U 21075V   24062.82353810 -.00000381  00000+0 -10954-2 0  9999
2 49094  87.9036 157.1214 0001916 104.4393 255.6948 13.12440938124857
